{"type": "FeatureCollection", "features": [ {"type": "Feature", "properties": {"norad_id": 31444, "name": "FENGYUN 1C DEB", "group": "fengyun-1c-debris", "lat": 30.568023362924617, "lon": -83.57262897011697, "alt_km": 638.4544339228423, "timestamp": "2025-12-06T07:31:40.519333+00:00", "meta": {"OBJECT_NAME": "FENGYUN 1C DEB", "OBJECT_ID": "1999-025BUG", "EPOCH": "2025-12-04T01:28:04.457280", "MEAN_MOTION": 14.69659904, "ECCENTRICITY": 0.00623839, "INCLINATION": 98.9265, "RA_OF_ASC_NODE": 279.2929, "ARG_OF_PERICENTER": 98.6483, "MEAN_ANOMALY": 262.1794, "EPHEMERIS_TYPE": 0, "CLASSIFICATION_TYPE": "U", "NORAD_CAT_ID": 31444, "ELEMENT_SET_NO": 999, "REV_AT_EPOCH": 97361, "BSTAR": 0.0034316845, "MEAN_MOTION_DOT": 0.00021039, "MEAN_MOTION_DDOT": 0}, "tle": {"line1": "1 31444U 99025BUG 25338.06116270  .00021039  00000+0  34317-2 0  9999", "line2": "2 31444  98.9265 279.2929 0062383  98.6483 262.1794 14.69659904973617"}}, "geometry": {"type": "Point", "coordinates": [-83.57262897011697, 30.568023362924617]}}, {"type": "Feature", "properties": {"norad_id": 31447, "name": "FENGYUN 1C DEB", "group": "fengyun-1c-debris", "lat": 49.236210613343516, "lon": 10.829529152417972, "alt_km": 672.4493525968219, "timestamp": "2025-12-06T07:31:40.519343+00:00", "meta": {"OBJECT_NAME": "FENGYUN 1C DEB", "OBJECT_ID": "1999-025BUK", "EPOCH": "2025-11-29T08:21:43.391232", "MEAN_MOTION": 14.24014054, "ECCENTRICITY": 0.02308258, "INCLINATION": 98.9936, "RA_OF_ASC_NODE": 14.2854, "ARG_OF_PERICENTER": 33.7171, "MEAN_ANOMALY": 327.8449, "EPHEMERIS_TYPE": 0, "CLASSIFICATION_TYPE": "U", "NORAD_CAT_ID": 31447, "ELEMENT_SET_NO": 999, "REV_AT_EPOCH": 64661, "BSTAR": 0.00017749079, "MEAN_MOTION_DOT": 4.86e-06, "MEAN_MOTION_DDOT": 0}, "tle": {"line1": "1 31447U 99025BUK 25333.34841888  .00000486  00000+0  17749-3 0  9992", "line2": "2 31447  98.9936  14.2854 0230825  33.7171 327.8449 14.24014054646616"}}, "geometry": {"type": "Point", "coordinates": [10.829529152417972, 49.236210613343516]}}, {"type": "Feature", "properties": {"norad_id": 31448, "name": "FENGYUN 1C DEB", "group": "fengyun-1c-debris", "lat": -22.5211239592152, "lon": -4.6704346040455444, "alt_km": 821.5228462293489, "timestamp": "2025-12-06T07:31:40.519354+00:00", "meta": {"OBJECT_NAME": "FENGYUN 1C DEB", "OBJECT_ID": "1999-025BUL", "EPOCH": "2025-12-02T19:32:21.678720", "MEAN_MOTION": 14.27758281, "ECCENTRICITY": 0.00583055, "INCLINATION": 98.4997, "RA_OF_ASC_NODE": 348.3701, "ARG_OF_PERICENTER": 233.3288, "MEAN_ANOMALY": 126.2527, "EPHEMERIS_TYPE": 0, "CLASSIFICATION_TYPE": "U", "NORAD_CAT_ID": 31448, "ELEMENT_SET_NO": 999, "REV_AT_EPOCH": 64162, "BSTAR": 0.00092327897, "MEAN_MOTION_DOT": 2.279e-05, "MEAN_MOTION_DDOT": 0}, "tle": {"line1": "1 31448U 99025BUL 25336.81413980  .00002279  00000+0  92328-3 0  9994", "line2": "2 31448  98.4997 348.3701 0058305 233.3288 126.2527 14.27758281641623"}}, "geometry": {"type": "Point", "coordinates": [-4.6704346040455444, -22.5211239592152]}}, {"type": "Feature", "properties": {"norad_id": 31449, "name": "FENGYUN 1C DEB", "group": "fengyun-1c-debris", "lat": -2.3745399030559553, "lon": -141.4602253088455, "alt_km": 809.1584710678771, "timestamp": "2025-12-06T07:31:40.519364+00:00", "meta": {"OBJECT_NAME": "FENGYUN 1C DEB", "OBJECT_ID": "1999-025BUM", "EPOCH": "2025-12-03T21:43:02.699904", "MEAN_MOTION": 14.33690115, "ECCENTRICITY": 0.01440935, "INCLINATION": 98.556, "RA_OF_ASC_NODE": 36.515, "ARG_OF_PERICENTER": 295.0988, "MEAN_ANOMALY": 63.5302, "EPHEMERIS_TYPE": 0, "CLASSIFICATION_TYPE": "U", "NORAD_CAT_ID": 31449, "ELEMENT_SET_NO": 999, "REV_AT_EPOCH": 97510, "BSTAR": 0.00039219438, "MEAN_MOTION_DOT": 1.174e-05, "MEAN_MOTION_DDOT": 0}, "tle": {"line1": "1 31449U 99025BUM 25337.90489236  .00001174  00000+0  39219-3 0  9996", "line2": "2 31449  98.5560  36.5150 0144093 295.0988  63.5302 14.33690115975102"}}, "geometry": {"type": "Point", "coordinates": [-141.4602253088455, -2.3745399030559553]}}, {"type": "Feature", "properties": {"norad_id": 31451, "name": "FENGYUN 1C DEB", "group": "fengyun-1c-debris", "lat": 57.86139670836676, "lon": 8.299806064590053, "alt_km": 863.43885421509, "timestamp": "2025-12-06T07:31:40.519375+00:00", "meta": {"OBJECT_NAME": "FENGYUN 1C DEB", "OBJECT_ID": "1999-025BUP", "EPOCH": "2025-12-04T09:27:31.002048", "MEAN_MOTION": 14.13606143, "ECCENTRICITY": 0.0030824, "INCLINATION": 98.7647, "RA_OF_ASC_NODE": 20.6343, "ARG_OF_PERICENTER": 235.6476, "MEAN_ANOMALY": 140.2863, "EPHEMERIS_TYPE": 0, "CLASSIFICATION_TYPE": "U", "NORAD_CAT_ID": 31451, "ELEMENT_SET_NO": 999, "REV_AT_EPOCH": 95892, "BSTAR": 0.00063945, "MEAN_MOTION_DOT": 1.168e-05, "MEAN_MOTION_DDOT": 0}, "tle": {"line1": "1 31451U 99025BUP 25338.39410882  .00001168  00000+0  63945-3 0  9990", "line2": "2 31451  98.7647  20.6343 0030824 235.6476 140.2863 14.13606143958921"}}, "geometry": {"type": "Point", "coordinates": [8.299806064590053, 57.86139670836676]}}, {"type": "Feature", "properties": {"norad_id": 31452, "name": "FENGYUN 1C DEB", "group": "fengyun-1c-debris", "lat": -75.98973356632531, "lon": 5.081041910152699, "alt_km": 869.6427211960945, "timestamp": "2025-12-06T07:31:40.519385+00:00", "meta": {"OBJECT_NAME": "FENGYUN 1C DEB", "OBJECT_ID": "1999-025BUQ", "EPOCH": "2025-12-02T05:28:59.848608", "MEAN_MOTION": 14.15144251, "ECCENTRICITY": 0.004031, "INCLINATION": 98.658, "RA_OF_ASC_NODE": 323.48, "ARG_OF_PERICENTER": 157.7123, "MEAN_ANOMALY": 202.5814, "EPHEMERIS_TYPE": 0, "CLASSIFICATION_TYPE": "U", "NORAD_CAT_ID": 31452, "ELEMENT_SET_NO": 999, "REV_AT_EPOCH": 96057, "BSTAR": 0.00046116, "MEAN_MOTION_DOT": 8.6e-06, "MEAN_MOTION_DDOT": 0}, "tle": {"line1": "1 31452U 99025BUQ 25336.22847047  .00000860  00000+0  46116-3 0  9997", "line2": "2 31452  98.6580 323.4800 0040310 157.7123 202.5814 14.15144251960574"}}, "geometry": {"type": "Point", "coordinates": [5.081041910152699, -75.98973356632531]}}, {"type": "Feature", "properties": {"norad_id": 31455, "name": "FENGYUN 1C DEB", "group": "fengyun-1c-debris", "lat": -16.598817519797166, "lon": -28.597067091239936, "alt_km": 845.2272626286385, "timestamp": "2025-12-06T07:31:40.519395+00:00", "meta": {"OBJECT_NAME": "FENGYUN 1C DEB", "OBJECT_ID": "1999-025BUT", "EPOCH": "2025-12-01T05:06:27.684288", "MEAN_MOTION": 14.11407074, "ECCENTRICITY": 0.0218887, "INCLINATION": 98.5737, "RA_OF_ASC_NODE": 323.9486, "ARG_OF_PERICENTER": 84.0104, "MEAN_ANOMALY": 278.5966, "EPHEMERIS_TYPE": 0, "CLASSIFICATION_TYPE": "U", "NORAD_CAT_ID": 31455, "ELEMENT_SET_NO": 999, "REV_AT_EPOCH": 95941, "BSTAR": 0.00026567, "MEAN_MOTION_DOT": 5.62e-06, "MEAN_MOTION_DDOT": 0}, "tle": {"line1": "1 31455U 99025BUT 25335.21282042  .00000562  00000+0  26567-3 0  9993", "line2": "2 31455  98.5737 323.9486 0218887  84.0104 278.5966 14.11407074959415"}}, "geometry": {"type": "Point", "coordinates": [-28.597067091239936, -16.598817519797166]}}, {"type": "Feature", "properties": {"norad_id": 31456, "name": "FENGYUN 1C DEB", "group": "fengyun-1c-debris", "lat": -26.906753554598676, "lon": 87.01577905493356, "alt_km": 708.1808308470299, "timestamp": "2025-12-06T07:31:40.519405+00:00", "meta": {"OBJECT_NAME": "FENGYUN 1C DEB", "OBJECT_ID": "1999-025BUU", "EPOCH": "2025-12-01T12:46:16.695552", "MEAN_MOTION": 14.42301332, "ECCENTRICITY": 0.00678284, "INCLINATION": 98.5781, "RA_OF_ASC_NODE": 77.816, "ARG_OF_PERICENTER": 348.4269, "MEAN_ANOMALY": 11.5358, "EPHEMERIS_TYPE": 0, "CLASSIFICATION_TYPE": "U", "NORAD_CAT_ID": 31456, "ELEMENT_SET_NO": 999, "REV_AT_EPOCH": 97305, "BSTAR": 0.00080227123, "MEAN_MOTION_DOT": 2.676e-05, "MEAN_MOTION_DDOT": 0}, "tle": {"line1": "1 31456U 99025BUU 25335.53213768  .00002676  00000+0  80227-3 0  9999", "line2": "2 31456  98.5781  77.8160 0067828 348.4269  11.5358 14.42301332973055"}}, "geometry": {"type": "Point", "coordinates": [87.01577905493356, -26.906753554598676]}}, {"type": "Feature", "properties": {"norad_id": 31459, "name": "FENGYUN 1C DEB", "group": "fengyun-1c-debris", "lat": -57.78807018200829, "lon": 55.63628604613997, "alt_km": 748.5389009005958, "timestamp": "2025-12-06T07:31:40.519415+00:00", "meta": {"OBJECT_NAME": "FENGYUN 1C DEB", "OBJECT_ID": "1999-025BUX", "EPOCH": "2025-12-03T23:33:06.597504", "MEAN_MOTION": 14.43947822, "ECCENTRICITY": 0.00935426, "INCLINATION": 98.1742, "RA_OF_ASC_NODE": 246.583, "ARG_OF_PERICENTER": 158.5595, "MEAN_ANOMALY": 201.9555, "EPHEMERIS_TYPE": 0, "CLASSIFICATION_TYPE": "U", "NORAD_CAT_ID": 31459, "ELEMENT_SET_NO": 999, "REV_AT_EPOCH": 64431, "BSTAR": 0.0027458624, "MEAN_MOTION_DOT": 9.856e-05, "MEAN_MOTION_DDOT": 0}, "tle": {"line1": "1 31459U 99025BUX 25337.98132636  .00009856  00000+0  27459-2 0  9991", "line2": "2 31459  98.1742 246.5830 0093542 158.5595 201.9555 14.43947822644313"}}, "geometry": {"type": "Point", "coordinates": [55.63628604613997, -57.78807018200829]}}, {"type": "Feature", "properties": {"norad_id": 31462, "name": "FENGYUN 1C DEB", "group": "fengyun-1c-debris", "lat": 53.78025079723531, "lon": -13.14947222321424, "alt_km": 866.3834755053449, "timestamp": "2025-12-06T07:31:40.519425+00:00", "meta": {"OBJECT_NAME": "FENGYUN 1C DEB", "OBJECT_ID": "1999-025BVA", "EPOCH": "2025-12-04T13:30:17.903808", "MEAN_MOTION": 14.12995174, "ECCENTRICITY": 0.0031575, "INCLINATION": 98.6898, "RA_OF_ASC_NODE": 357.2037, "ARG_OF_PERICENTER": 228.2788, "MEAN_ANOMALY": 284.7988, "EPHEMERIS_TYPE": 0, "CLASSIFICATION_TYPE": "U", "NORAD_CAT_ID": 31462, "ELEMENT_SET_NO": 999, "REV_AT_EPOCH": 95740, "BSTAR": 0.00056092, "MEAN_MOTION_DOT": 1.008e-05, "MEAN_MOTION_DDOT": 0}, "tle": {"line1": "1 31462U 99025BVA 25338.56270722  .00001008  00000+0  56092-3 0  9996", "line2": "2 31462  98.6898 357.2037 0031575 228.2788 284.7988 14.12995174957405"}}, "geometry": {"type": "Point", "coordinates": [-13.14947222321424, 53.78025079723531]}}]}